ASTRA 1M                
1 33436U 08057A   26183.84841354  .00000131  00000+0  00000+0 0  9999
2 33436   0.3344  82.6823 0005001  32.2194 130.7864  1.00271766 45896
EUTELSAT HOTBIRD 13C    
1 33459U 08065A   26183.78650291 -.00000274  00000+0  00000+0 0  9993
2 33459   2.9879  79.0153 0003413  22.9815  51.6601  1.00270841 47502
EXPRESS-AM44            
1 33595U 09007A   26184.43583579 -.00000080  00000+0  00000+0 0  9993
2 33595   3.5032  78.2025 0004262  15.6802 333.4680  1.00272013 52448
NSS-9                   
1 33749U 09008A   26183.76137593  .00000082  00000+0  00000+0 0  9992
2 33749   1.2996  82.5201 0002356  11.2787 284.1614  1.00272372 63677
TELSTAR 11N             
1 34111U 09009A   26183.78901624 -.00000240  00000+0  00000+0 0  9990
2 34111   0.0156  44.9243 0002664  53.9348  68.4568  1.00272857 46403
WGS F2 (USA 204)        
1 34713U 09017A   26183.73654436  .00000079  00000+0  00000+0 0  9997
2 34713   0.0187  20.0082 0000503 139.1091  84.3284  1.00270260 45770
SES-7 (PROTOSTAR 2)     
1 34941U 09027A   26183.68624840 -.00000334  00000+0  00000+0 0  9996
2 34941   0.0243  57.4916 0001141 120.3413  98.1720  1.00270101 62787
MEASAT-3A               
1 35362U 09032A   26183.86453725 -.00000100  00000+0  00000+0 0  9993
2 35362   0.0231 346.3572 0003194 107.9808 297.8036  1.00271689  8183
GOES 14                 
1 35491U 09033A   26183.82267793 -.00000329  00000+0  00000+0 0  9994
2 35491   1.7279  82.8654 0002229  26.5013 240.2997  1.00105313  6749
FM-5                    
1 35493U 09034A   26183.77931601 -.00000189  00000+0  00000+0 0  9991
2 35493   0.0343 275.0250 0000963  71.7322 128.4433  1.00271535 46804
TERRESTAR-1             
1 35496U 09035A   26183.70315649 -.00000048  00000+0  00000+0 0  9990
2 35496   5.1838  48.7882 0002672  43.3973 330.6735  1.00272578 62295
ASIASAT 5               
1 35696U 09042A   26185.02821907 -.00000295  00000+0  00000+0 0  9990
2 35696   0.0326  73.2740 0001560   8.5709 310.8704  1.00270676 61870
JCSAT-12 (JCSAT-RA)     
1 35755U 09044A   26183.83455682 -.00000317  00000+0  00000+0 0  9993
2 35755   0.0301 292.1368 0000707 248.5529 172.6587  1.00271904 61761
OPTUS D3                
1 35756U 09044B   26183.75608924 -.00000134  00000+0  00000+0 0  9991
2 35756   0.8834 268.4529 0003519 194.0205 246.6503  1.00273454 61724
NIMIQ 5                 
1 35873U 09050A   26183.61678527 -.00000246  00000+0  00000+0 0  9993
2 35873   0.0248 285.3738 0002960 168.5925 336.0220  1.00270300 61490
AMAZONAS 2              
1 35942U 09054A   26183.56829301 -.00000249  00000+0  00000+0 0  9999
2 35942   1.8530  82.8651 0003523  23.0075 307.2888  1.00268849 61339
COMSATBW-1              
1 35943U 09054B   26183.83240152  .00000035  00000+0  00000+0 0  9993
2 35943   0.0688 122.8630 0003109 341.5756 179.1079  1.00272674 61464
NSS-12                  
1 36032U 09058A   26183.87028259  .00000082  00000+0  00000+0 0  9995
2 36032   0.0634 276.9669 0004790 152.4562 221.7751  1.00272257 61074
THOR 6                  
1 36033U 09058B   26183.72500597  .00000001  00000+0  00000+0 0  9991
2 36033   0.0207  85.4590 0002191  39.6828  55.7759  1.00271085 61162
INTELSAT 14 (IS-14)     
1 36097U 09064A   26183.78754291 -.00000263  00000+0  00000+0 0  9997
2 36097   0.0211 298.2921 0002624 161.7725  59.2725  1.00273447 60764
EUTELSAT 36B            
1 36101U 09065A   26183.76785657  .00000123  00000+0  00000+0 0  9996
2 36101   0.5278  81.2717 0006118  20.2056 146.2551  1.00269641 60865
INTELSAT 15 (IS-15)     
1 36106U 09067A   26183.81226830 -.00000175  00000+0  00000+0 0  9990
2 36106   0.0173 347.3282 0002497 114.3582 196.7222  1.00272854 41388
WGS F3 (USA 211)        
1 36108U 09068A   26183.48169733  .00000074  00000+0  00000+0 0  9991
2 36108   0.3096  85.7176 0000791  41.4348 196.7936  1.00272327 46749
DIRECTV 12              
1 36131U 09075A   26183.63349326 -.00000092  00000+0  00000+0 0  9991
2 36131   0.0418 186.0830 0000293 277.3252 302.5946  1.00269592 46707
BEIDOU-2 G1             
1 36287U 10001A   26184.63119799 -.00000270  00000+0  00000+0 0  9992
2 36287   4.3299  60.3542 0002006 308.9760 280.0355  1.00271008 60330
SDO                     
1 36395U 10005A   26183.25044652 -.00000081  00000+0  00000+0 0  9998
2 36395  34.6806  86.1151 0001496  53.7669 128.3250  1.00270409 60216
INTELSAT 16 (IS-16)     
1 36397U 10006A   26183.42493795 -.00000234  00000+0  00000+0 0  9996
2 36397   0.0092  41.9781 0002473  75.3467 239.9198  1.00272658 59803
EWS-G2 (GOES 15)        
1 36411U 10008A   26183.86958038  .00000031  00000+0  00000+0 0  9993
2 36411   1.3182  82.6350 0005372  46.1653 168.6231  1.00268401 59797
ECHOSTAR 14             
1 36499U 10010A   26183.63028659  .00000000  00000+0  00000+0 0  9990
2 36499   0.0182  18.7431 0002180  78.3147 291.6160  1.00269513 46708
SES-1                   
1 36516U 10016A   26183.63357993 -.00000104  00000+0  00000+0 0  9998
2 36516   0.0454 283.7004 0002884 172.9833 311.0786  1.00271844 59181
ASTRA 3B                
1 36581U 10021A   26183.85175660  .00000147  00000+0  00000+0 0  9995
2 36581   1.5093  83.3666 0004222  14.8172 152.8097  1.00271324 59026
COMSATBW-2              
1 36582U 10021B   26183.84284745  .00000099  00000+0  00000+0 0  9996
2 36582   0.0458 169.0188 0002599 302.8837 125.6142  1.00270478 59118
