OBJECT_NAME,OBJECT_ID,EPOCH,MEAN_MOTION,ECCENTRICITY,INCLINATION,RA_OF_ASC_NODE,ARG_OF_PERICENTER,MEAN_ANOMALY,EPHEMERIS_TYPE,CLASSIFICATION_TYPE,NORAD_CAT_ID,ELEMENT_SET_NO,REV_AT_EPOCH,BSTAR,MEAN_MOTION_DOT,MEAN_MOTION_DDOT
ASTRA 1M,2008-057A,2026-07-02T20:21:42.929856,1.00271766,.00050012,0.3344,82.6823,32.2194,130.7864,0,U,33436,999,4589,0,.131E-5,0
EUTELSAT HOTBIRD 13C,2008-065A,2026-07-02T18:52:33.851424,1.00270841,.00034133,2.9879,79.0153,22.9815,51.6601,0,U,33459,999,4750,0,-.274E-5,0
EXPRESS-AM44,2009-007A,2026-07-03T10:27:36.212256,1.00272013,.0004262,3.5032,78.2025,15.6802,333.4680,0,U,33595,999,5244,0,-.8E-6,0
NSS-9,2009-008A,2026-07-02T18:16:22.880352,1.00272372,.0002356,1.2996,82.5201,11.2787,284.1614,0,U,33749,999,6367,0,.82E-6,0
TELSTAR 11N,2009-009A,2026-07-02T18:56:11.003136,1.00272857,.0002664,0.0156,44.9243,53.9348,68.4568,0,U,34111,999,4640,0,-.24E-5,0
WGS F2 (USA 204),2009-017A,2026-07-02T17:40:37.432704,1.00270260,.00005037,0.0187,20.0082,139.1091,84.3284,0,U,34713,999,4577,0,.79E-6,0
SES-7 (PROTOSTAR 2),2009-027A,2026-07-02T16:28:11.861760,1.00270101,.00011412,0.0243,57.4916,120.3413,98.1720,0,U,34941,999,6278,0,-.334E-5,0
MEASAT-3A,2009-032A,2026-07-02T20:44:56.018400,1.00271689,.00031944,0.0231,346.3572,107.9808,297.8036,0,U,35362,999,818,0,-.1E-5,0
GOES 14,2009-033A,2026-07-02T19:44:39.373152,1.00105313,.00022294,1.7279,82.8654,26.5013,240.2997,0,U,35491,999,674,0,-.329E-5,0
FM-5,2009-034A,2026-07-02T18:42:12.903264,1.00271535,.00009637,0.0343,275.0250,71.7322,128.4433,0,U,35493,999,4680,0,-.189E-5,0
TERRESTAR-1,2009-035A,2026-07-02T16:52:32.720736,1.00272578,.00026728,5.1838,48.7882,43.3973,330.6735,0,U,35496,999,6229,0,-.48E-6,0
ASIASAT 5,2009-042A,2026-07-04T00:40:38.127648,1.00270676,.000156,0.0326,73.2740,8.5709,310.8704,0,U,35696,999,6187,0,-.295E-5,0
JCSAT-12 (JCSAT-RA),2009-044A,2026-07-02T20:01:45.709248,1.00271904,.0000707,0.0301,292.1368,248.5529,172.6587,0,U,35755,999,6176,0,-.317E-5,0
OPTUS D3,2009-044B,2026-07-02T18:08:46.110336,1.00273454,.00035194,0.8834,268.4529,194.0205,246.6503,0,U,35756,999,6172,0,-.134E-5,0
NIMIQ 5,2009-050A,2026-07-02T14:48:10.247328,1.00270300,.000296,0.0248,285.3738,168.5925,336.0220,0,U,35873,999,6149,0,-.246E-5,0
AMAZONAS 2,2009-054A,2026-07-02T13:38:20.516064,1.00268849,.0003523,1.8530,82.8651,23.0075,307.2888,0,U,35942,999,6133,0,-.249E-5,0
COMSATBW-1,2009-054B,2026-07-02T19:58:39.491328,1.00272674,.00031094,0.0688,122.8630,341.5756,179.1079,0,U,35943,999,6146,0,.35E-6,0
NSS-12,2009-058A,2026-07-02T20:53:12.415776,1.00272257,.00047904,0.0634,276.9669,152.4562,221.7751,0,U,36032,999,6107,0,.82E-6,0
THOR 6,2009-058B,2026-07-02T17:24:00.515808,1.00271085,.00021919,0.0207,85.4590,39.6828,55.7759,0,U,36033,999,6116,0,.1E-7,0
INTELSAT 14 (IS-14),2009-064A,2026-07-02T18:54:03.707424,1.00273447,.00026243,0.0211,298.2921,161.7725,59.2725,0,U,36097,999,6076,0,-.263E-5,0
EUTELSAT 36B,2009-065A,2026-07-02T18:25:42.807648,1.00269641,.00061184,0.5278,81.2717,20.2056,146.2551,0,U,36101,999,6086,0,.123E-5,0
INTELSAT 15 (IS-15),2009-067A,2026-07-02T19:29:39.981120,1.00272854,.00024972,0.0173,347.3282,114.3582,196.7222,0,U,36106,999,4138,0,-.175E-5,0
WGS F3 (USA 211),2009-068A,2026-07-02T11:33:38.649312,1.00272327,.0000791,0.3096,85.7176,41.4348,196.7936,0,U,36108,999,4674,0,.74E-6,0
DIRECTV 12,2009-075A,2026-07-02T15:12:13.817664,1.00269592,.00002931,0.0418,186.0830,277.3252,302.5946,0,U,36131,999,4670,0,-.92E-6,0
BEIDOU-2 G1,2010-001A,2026-07-03T15:08:55.506336,1.00271008,.00020064,4.3299,60.3542,308.9760,280.0355,0,U,36287,999,6033,0,-.27E-5,0
SDO,2010-005A,2026-07-02T06:00:38.579328,1.00270409,.0001496,34.6806,86.1151,53.7669,128.3250,0,U,36395,999,6021,0,-.81E-6,0
INTELSAT 16 (IS-16),2010-006A,2026-07-02T10:11:54.638880,1.00272658,.0002473,0.0092,41.9781,75.3467,239.9198,0,U,36397,999,5980,0,-.234E-5,0
EWS-G2 (GOES 15),2010-008A,2026-07-02T20:52:11.744832,1.00268401,.00053722,1.3182,82.6350,46.1653,168.6231,0,U,36411,999,5979,0,.31E-6,0
ECHOSTAR 14,2010-010A,2026-07-02T15:07:36.761376,1.00269513,.00021806,0.0182,18.7431,78.3147,291.6160,0,U,36499,999,4670,0,0,0
SES-1,2010-016A,2026-07-02T15:12:21.305952,1.00271844,.00028841,0.0454,283.7004,172.9833,311.0786,0,U,36516,999,5918,0,-.104E-5,0
ASTRA 3B,2010-021A,2026-07-02T20:26:31.770240,1.00271324,.00042224,1.5093,83.3666,14.8172,152.8097,0,U,36581,999,5902,0,.147E-5,0
COMSATBW-2,2010-021B,2026-07-02T20:13:42.019680,1.00270478,.00025997,0.0458,169.0188,302.8837,125.6142,0,U,36582,999,5911,0,.99E-6,0
